{
  "norad_id": 68428,
  "name": "TRANSPORTER-16 OBJECT N",
  "history": [
    {
      "epoch": "2026-04-14T03:14:47.443776Z",
      "apogee_km": 512.8666747803209,
      "perigee_km": 510.7538035599573,
      "latitude_deg": 5.0804843502479395e-05,
      "longitude_deg": 172.55626802056577,
      "height_km": 515.7977911032864,
      "semi_major_axis_km": 6889.947239170138,
      "eccentricity": 0.00015333,
      "inclination_deg": 97.4518,
      "raan_deg": 63.57,
      "arg_perigee_deg": 148.6556,
      "mean_anomaly_deg": 211.477,
      "mean_motion_rev_day": 15.18024978
    }
  ]
}