{"fetched_at":"2026-04-16T06:04:01Z","count":5425,"tles":[{"name":"TRANSPORTER-16 OBJECT N","line1":"1 68428U 26067N   26104.13527134  .00002475  00000+0  12496-3 0  9990","line2":"2 68428  97.4518  63.5700 0001533 148.6556 211.4770 15.18024978  2225","category":"Other"}]}